HST                     
1 20580U 90037B   21232.36512157  .00000545  00000-0  21966-4 0  9996
2 20580  28.4710   2.1752 0002836  34.8121 354.1372 15.09707818520664
POLAR                   
1 23802U 96013A   21231.12741640  .00000283  00000-0  00000-0 0  9991
2 23802  78.7178 244.7465 5970147 269.1038  26.4644  1.29847066121967
SWAS                    
1 25560U 98071A   21232.42758294  .00000151  00000-0  22542-4 0  9990
2 25560  69.8996  24.1456 0005909  36.8818 323.2744 14.94118945233050
CXO                     
1 25867U 99040B   21234.22544053  .00000499  00000-0  00000-0 0  9999
2 25867  53.4572 252.4314 8419231 226.9238   0.6366  0.37808494 10686
XMM-NEWTON              
1 25989U 99066A   21234.33642165  .00000082  00000-0  00000-0 0  9995
2 25989  70.7098 310.6619 6477179  89.7784   0.3977  0.50134450 14177
TERRA                   
1 25994U 99068A   21232.36558081  .00000043  00000-0  19459-4 0  9996
2 25994  98.1727 305.6087 0001402  99.7058 329.0768 14.57131773152652
CLUSTER II-FM7 (SAMBA)  
1 26410U 00041A   21233.06412136 -.00000249  00000-0  00000-0 0  9998
2 26410 133.0153 345.0331 5029993 193.4195 359.4711  0.44198417 12493
CLUSTER II-FM6 (SALSA)  
1 26411U 00041B   21233.05913347 -.00000334  00000-0  00000-0 0  9993
2 26411 133.9945 347.0919 6555921 198.0838 359.4507  0.44216402 12530
CLUSTER II-FM5 (RUMBA)  
1 26463U 00045A   21233.06246973 -.00000244  00000-0  00000-0 0  9999
2 26463 137.6251 347.1584 6105385 198.4723 359.4928  0.44216770 12422
CLUSTER II-FM8 (TANGO)  
1 26464U 00045B   21233.06353211 -.00000249  00000-0  00000-0 0  9999
2 26464 133.0247 345.0247 5027849 193.4230 359.4378  0.44219881 12500
ODIN                    
1 26702U 01007A   21232.15482559  .00000191  00000-0  16217-4 0  9996
2 26702  97.5363 247.5239 0009173 237.3187 122.7157 15.08609971120830
TIMED                   
1 26998U 01055B   21232.20025053  .00000096  00000-0  14401-4 0  9991
2 26998  74.0733 159.6018 0000868 216.2930 143.8192 14.88333317 68187
RHESSI                  
1 27370U 02004A   21232.24081942  .00002789  00000-0  82989-4 0  9991
2 27370  38.0335  66.7568 0012299 251.0667 108.8772 15.35483166 80206
INTEGRAL                
1 27540U 02048A   21226.47032270  .00000379  00000-0  00000-0 0  9999
2 27540  66.0161  80.2861 8986130 299.7389   1.6145  0.37590881 20007
CORIOLIS                
1 27640U 03001A   21232.40472052  .00000001  00000-0  21461-4 0  9996
2 27640  98.7220 241.1850 0013145 241.4503 248.3176 14.19078965964272
SORCE                   
1 27651U 03004A   21232.09493401  .00000108  00000-0  25224-4 0  9996
2 27651  39.9957  99.2360 0022300 158.1587 202.0157 14.89347999  8127
MOST                    
1 27843U 03031D   21232.26784419 -.00000001  00000-0  20004-4 0  9994
2 27843  98.7093 239.2945 0009016 300.4947  59.5340 14.20642431940487
SCISAT 1                
1 27858U 03036A   21232.25615445  .00000058  00000-0  13206-4 0  9993
2 27858  73.9322  58.6564 0007754 175.3765 184.7482 14.77364919970943
SWIFT                   
1 28485U 04047A   21232.38836348  .00000888  00000-0  29700-4 0  9991
2 28485  20.5559 261.1297 0011289  84.7156 275.4566 15.05083455918116
FORMOSAT-3 FM6          
1 29047U 06011A   21232.23709660  .00000013  00000-0  21254-4 0  9995
2 29047  71.9794 314.7552 0049353  40.5152 319.9641 14.28835474802536
FORMOSAT-3 FM1          
1 29048U 06011B   21232.40633882  .00000114  00000-0  61235-4 0  9992
2 29048  71.9646 224.8168 0043940 358.2054   1.8918 14.28794194805038
FORMOSAT-3 FM5          
1 29049U 06011C   21232.45411151  .00000091  00000-0  51809-4 0  9991
2 29049  72.0207  38.8098 0034549  21.2423 339.0138 14.28876405800830
FORMOSAT-3 FM3          
1 29050U 06011D   21232.14372575  .00000083  00000-0  27892-4 0  9991
2 29050  72.0163 141.6667 0051693 265.7903  93.7341 14.59101019818830
FORMOSAT-3 FM4          
1 29051U 06011E   21232.44371615  .00000066  00000-0  41718-4 0  9993
2 29051  72.0053 300.0568 0070104 263.3684  95.9469 14.28907840803413
FORMOSAT-3 FM2          
1 29052U 06011F   21232.34182709  .00000056  00000-0  37877-4 0  9997
2 29052  72.0358  15.7480 0040904 340.0526  19.9009 14.29018176800899
CLOUDSAT                
1 29107U 06016A   21232.30229445  .00000084  00000-0  25852-4 0  9999
2 29107  98.2826 185.4918 0005367 147.8198 212.3331 14.63104831815001
CALIPSO                 
1 29108U 06016B   21232.34383502  .00000118  00000-0  32681-4 0  9995
2 29108  98.2800 185.2700 0001332  79.0155 281.1196 14.62578700815000
HINODE (SOLAR-B)        
1 29479U 06041A   21232.30748694  .00000087  00000-0  25344-4 0  9990
2 29479  98.1351 246.1289 0020601  93.4912 266.8647 14.64580225796670
SJ-6C                   
1 29505U 06046A   21232.47793969  .00000759  00000-0  74293-4 0  9991
2 29505  97.7988 250.3339 0005835  60.4325 299.7483 14.95221017807714
SJ-6D                   
1 29506U 06046B   21232.50836302 -.00000595  00000-0 -51009-4 0  9995
2 29506  97.8187 250.5864 0003197 114.5326 245.6223 14.93626395807216
AGILE                   
1 31135U 07013A   21232.30055002  .00002948  00000-0  52592-4 0  9999
2 31135   2.4683  77.4906 0011205  43.3751 316.7184 15.33837703430583
AIM                     
1 31304U 07015A   21232.15971356  .00001095  00000-0  63172-4 0  9999
2 31304  97.8621 135.9776 0004688 349.8378  10.2757 15.14610437785556
FGRST (GLAST)           
1 33053U 08029A   21232.18403669  .00000546  00000-0  14326-4 0  9995
2 33053  25.5832  60.2622 0011967 291.2811  68.6447 15.11568258728056
WISE                    
1 36119U 09071A   21232.35276506  .00001078  00000-0  38358-4 0  9998
2 36119  97.2799 267.7379 0001176 340.5861  19.5335 15.31092971649405
SDO                     
1 36395U 10005A   21232.20434302 -.00000107  00000-0  00000-0 0  9999
2 36395  31.0788 114.1512 0000563 311.3308 234.7530  1.00275909 42398
CRYOSAT 2               
1 36508U 10013A   21232.34985215  .00000092  00000-0  21983-4 0  9992
2 36508  92.0137 211.2310 0005797 167.4902 192.6450 14.51910417602449
X-SAT                   
1 37389U 11015C   21232.43809464 -.00000057  00000-0 -68805-5 0  9992
2 37389  98.3782 275.3359 0015291 112.6375 247.6429 14.24389779537357
GCOM-W1 (SHIZUKU)       
1 38337U 12025A   21232.40141365  .00000032  00000-0  17246-4 0  9997
2 38337  98.2107 172.1772 0002269  77.4058  73.7161 14.57111458492478
NUSTAR                  
1 38358U 12031A   21232.15153762  .00000993  00000-0  29639-4 0  9998
2 38358   6.0278  34.3264 0012220 309.2194  50.6850 14.88580514499874
NEOSSAT                 
1 39089U 13009D   21232.29841490  .00000032  00000-0  26517-4 0  9999
2 39089  98.4397  70.8648 0012563  92.8269 267.4354 14.34577671444038
IRIS                    
1 39197U 13033A   21232.45814228  .00000107  00000-0  21740-4 0  9999
2 39197  97.9675  56.1050 0026216 283.4204  76.4085 14.78884293439483
HISAKI (SPRINT-A)       
1 39253U 13049A   21232.31470364  .00000040  00000-0 -33268-4 0  9998
2 39253  29.7180 175.0249 0137377 136.9263 224.2151 13.55248339392225
CASSIOPE                
1 39265U 13055A   21232.42138731  .00002842  00000-0  76924-4 0  9996
2 39265  80.9640 224.8834 0648216 125.9373 240.3758 14.32637617409150
STSAT-3                 
1 39422U 13066G   21232.52766916  .00000114  00000-0  17178-4 0  9992
2 39422  97.4776 248.9545 0022392 201.0500 158.9808 14.89996671421023
SWARM B                 
1 39451U 13067A   21232.43552056  .00000431  00000-0  17280-4 0  9999
2 39451  87.7581 151.5405 0003519  68.9126 291.2496 15.22092860415155
SWARM A                 
1 39452U 13067B   21232.38720182  .00001604  00000-0  32076-4 0  9994
2 39452  87.3641 334.4573 0003254 102.3696 257.7927 15.45878519435413
SWARM C                 
1 39453U 13067C   21232.38715593  .00001613  00000-0  32265-4 0  9995
2 39453  87.3493 334.5415 0003250 102.3906 257.7716 15.45878590435375
BRITE-CA1 (TORONTO)     
1 40020U 14033L   21232.45785722  .00000065  00000-0  19285-4 0  9997
2 40020  97.7478  42.4154 0088139 142.9323 217.8014 14.66759835383532
OCO 2                   
1 40059U 14035A   21232.36919267  .00000033  00000-0  17361-4 0  9992
2 40059  98.2113 172.8888 0001261  78.2671 281.8669 14.57098386379489
BRITE-PL2 (HEWELIUSZ)   
1 40119U 14049B   21232.32001923  .00000134  00000-0  22263-4 0  9990
2 40119  97.8889 326.1398 0018248 143.6906 216.5550 14.84685566379321
RESURS P2               
1 40360U 14087A   21232.56100856  .00000986  00000-0  31837-4 0  9993
2 40360  97.2266 318.7321 0011247  88.2259  36.2634 15.34415353372090
MMS 1                   
1 40482U 15011C   21229.04166667 -.00002247  00000-0  00000-0 0  9994
2 40482  33.5334 115.5143 8432068  35.9350 271.3482  0.28546504 12438
MMS 2                   
1 40483U 15011A   21229.04166667 -.00002246  00000-0  00000-0 0  9994
2 40483  33.5359 115.5062 8429707  35.9452 271.3382  0.28546468 12499
MMS 3                   
1 40484U 15011C   21229.04166667 -.00002247  00000-0  00000-0 0  9996
2 40484  33.5170 115.4749 8431214  35.9813 271.3196  0.28541985 12176
MMS 4                   
1 40485U 15011D   21229.04166667 -.00002247  00000-0  00000-0 0  9997
2 40485  33.5340 115.5240 8430949  35.9432 271.3069  0.28546464 12383
ASTROSAT                
1 40930U 15052A   21232.27136227  .00000738  00000-0  14393-4 0  9991
2 40930   5.9959 165.5874 0009031 216.8921 143.0585 14.76387382318561
DAMPE                   
1 41173U 15078A   21232.54025610  .00000124  00000-0  80070-5 0  9997
2 41173  97.3529 223.4794 0013719 172.8333 336.0101 15.24038598315741
PISAT                   
1 41784U 16059B   21232.36168057  .00000088  00000-0  25689-4 0  9991
2 41784  97.9620 281.7315 0032789  42.7805 317.5941 14.63649378261641
HXMT (HUIYAN)           
1 42758U 17034A   21232.38706662  .00000239  00000-0  28311-4 0  9992
2 42758  43.0158 202.1755 0008711 208.4572 283.5651 15.09267264230676
FLYING LAPTOP           
1 42831U 17042G   21232.57179037  .00000075  00000-0  12759-4 0  9991
2 42831  97.4624  98.9160 0012665 297.0015  62.9932 14.91329556223248
PICSAT                  
1 43132U 18004X   21232.45077959  .00001592  00000-0  64461-4 0  9994
2 43132  97.4063 306.4201 0008520 353.7349   6.3781 15.26127789200442
ZHANGZHENG-1 (CSES)     
1 43194U 18015C   21232.54196772  .00001362  00000-0  64526-4 0  9996
2 43194  97.4856 359.4722 0013861  51.9198  67.4484 15.20981352196887
ICON                    
1 44628U 19068A   21232.36265108  .00000523  00000-0  30741-4 0  9998
2 44628  26.9896 114.7768 0018641 311.7174  48.1789 14.91995923101544
SALSAT                  
1 46495U 20068K   21232.61853364  .00000249  00000-0  22759-4 0  9994
2 46495  97.6963 169.7445 0015842 209.7521 150.2806 15.03523647 48978
